<?xml version="1.0" encoding="UTF-8"?>
<ndm xmlns:xsi="http://www.w3.org/2001/XMLSchema-instance" xsi:noNamespaceSchemaLocation="https://sanaregistry.org/r/ndmxml_unqualified/ndmxml-2.0.0-master-2.0.xsd">
<omm id="CCSDS_OMM_VERS" version="2.0">
<header><CREATION_DATE/><ORIGINATOR/></header><body><segment><metadata><OBJECT_NAME>STARLINK-33919</OBJECT_NAME><OBJECT_ID>2025-087C</OBJECT_ID><CENTER_NAME>EARTH</CENTER_NAME><REF_FRAME>TEME</REF_FRAME><TIME_SYSTEM>UTC</TIME_SYSTEM><MEAN_ELEMENT_THEORY>SGP4</MEAN_ELEMENT_THEORY></metadata><data><meanElements><EPOCH>2025-05-07T22:00:01.999584</EPOCH><MEAN_MOTION>15.91657446</MEAN_MOTION><ECCENTRICITY>.0000772</ECCENTRICITY><INCLINATION>53.1558</INCLINATION><RA_OF_ASC_NODE>211.2554</RA_OF_ASC_NODE><ARG_OF_PERICENTER>55.1109</ARG_OF_PERICENTER><MEAN_ANOMALY>348.7979</MEAN_ANOMALY></meanElements><tleParameters><EPHEMERIS_TYPE>0</EPHEMERIS_TYPE><CLASSIFICATION_TYPE>U</CLASSIFICATION_TYPE><NORAD_CAT_ID>63699</NORAD_CAT_ID><ELEMENT_SET_NO>999</ELEMENT_SET_NO><REV_AT_EPOCH>144</REV_AT_EPOCH><BSTAR>-.3151E-2</BSTAR><MEAN_MOTION_DOT>-.105225E-1</MEAN_MOTION_DOT><MEAN_MOTION_DDOT>.33449E-3</MEAN_MOTION_DDOT></tleParameters></data></segment></body></omm>
<omm id="CCSDS_OMM_VERS" version="2.0">
<header><CREATION_DATE/><ORIGINATOR/></header><body><segment><metadata><OBJECT_NAME>STARLINK-33908</OBJECT_NAME><OBJECT_ID>2025-087D</OBJECT_ID><CENTER_NAME>EARTH</CENTER_NAME><REF_FRAME>TEME</REF_FRAME><TIME_SYSTEM>UTC</TIME_SYSTEM><MEAN_ELEMENT_THEORY>SGP4</MEAN_ELEMENT_THEORY></metadata><data><meanElements><EPOCH>2025-05-07T22:00:01.999584</EPOCH><MEAN_MOTION>15.91727124</MEAN_MOTION><ECCENTRICITY>.0000898</ECCENTRICITY><INCLINATION>53.1557</INCLINATION><RA_OF_ASC_NODE>211.2503</RA_OF_ASC_NODE><ARG_OF_PERICENTER>57.0149</ARG_OF_PERICENTER><MEAN_ANOMALY>349.3495</MEAN_ANOMALY></meanElements><tleParameters><EPHEMERIS_TYPE>0</EPHEMERIS_TYPE><CLASSIFICATION_TYPE>U</CLASSIFICATION_TYPE><NORAD_CAT_ID>63700</NORAD_CAT_ID><ELEMENT_SET_NO>999</ELEMENT_SET_NO><REV_AT_EPOCH>130</REV_AT_EPOCH><BSTAR>-.31586E-2</BSTAR><MEAN_MOTION_DOT>-.1058544E-1</MEAN_MOTION_DOT><MEAN_MOTION_DDOT>.33835E-3</MEAN_MOTION_DDOT></tleParameters></data></segment></body></omm>
<omm id="CCSDS_OMM_VERS" version="2.0">
<header><CREATION_DATE/><ORIGINATOR/></header><body><segment><metadata><OBJECT_NAME>STARLINK-33950</OBJECT_NAME><OBJECT_ID>2025-087E</OBJECT_ID><CENTER_NAME>EARTH</CENTER_NAME><REF_FRAME>TEME</REF_FRAME><TIME_SYSTEM>UTC</TIME_SYSTEM><MEAN_ELEMENT_THEORY>SGP4</MEAN_ELEMENT_THEORY></metadata><data><meanElements><EPOCH>2025-05-07T22:00:01.999584</EPOCH><MEAN_MOTION>15.91768083</MEAN_MOTION><ECCENTRICITY>.0000803</ECCENTRICITY><INCLINATION>53.1556</INCLINATION><RA_OF_ASC_NODE>211.2475</RA_OF_ASC_NODE><ARG_OF_PERICENTER>55.1399</ARG_OF_PERICENTER><MEAN_ANOMALY>352.4885</MEAN_ANOMALY></meanElements><tleParameters><EPHEMERIS_TYPE>0</EPHEMERIS_TYPE><CLASSIFICATION_TYPE>U</CLASSIFICATION_TYPE><NORAD_CAT_ID>63701</NORAD_CAT_ID><ELEMENT_SET_NO>999</ELEMENT_SET_NO><REV_AT_EPOCH>139</REV_AT_EPOCH><BSTAR>-.31573E-2</BSTAR><MEAN_MOTION_DOT>-.1060329E-1</MEAN_MOTION_DOT><MEAN_MOTION_DDOT>.33952E-3</MEAN_MOTION_DDOT></tleParameters></data></segment></body></omm>
<omm id="CCSDS_OMM_VERS" version="2.0">
<header><CREATION_DATE/><ORIGINATOR/></header><body><segment><metadata><OBJECT_NAME>STARLINK-33939</OBJECT_NAME><OBJECT_ID>2025-087F</OBJECT_ID><CENTER_NAME>EARTH</CENTER_NAME><REF_FRAME>TEME</REF_FRAME><TIME_SYSTEM>UTC</TIME_SYSTEM><MEAN_ELEMENT_THEORY>SGP4</MEAN_ELEMENT_THEORY></metadata><data><meanElements><EPOCH>2025-05-07T22:00:01.999584</EPOCH><MEAN_MOTION>15.91832276</MEAN_MOTION><ECCENTRICITY>.000086</ECCENTRICITY><INCLINATION>53.1557</INCLINATION><RA_OF_ASC_NODE>211.2430</RA_OF_ASC_NODE><ARG_OF_PERICENTER>55.4663</ARG_OF_PERICENTER><MEAN_ANOMALY>354.3720</MEAN_ANOMALY></meanElements><tleParameters><EPHEMERIS_TYPE>0</EPHEMERIS_TYPE><CLASSIFICATION_TYPE>U</CLASSIFICATION_TYPE><NORAD_CAT_ID>63702</NORAD_CAT_ID><ELEMENT_SET_NO>999</ELEMENT_SET_NO><REV_AT_EPOCH>130</REV_AT_EPOCH><BSTAR>-.31624E-2</BSTAR><MEAN_MOTION_DOT>-.1065531E-1</MEAN_MOTION_DOT><MEAN_MOTION_DDOT>.34276E-3</MEAN_MOTION_DDOT></tleParameters></data></segment></body></omm>
<omm id="CCSDS_OMM_VERS" version="2.0">
<header><CREATION_DATE/><ORIGINATOR/></header><body><segment><metadata><OBJECT_NAME>STARLINK-33868</OBJECT_NAME><OBJECT_ID>2025-087G</OBJECT_ID><CENTER_NAME>EARTH</CENTER_NAME><REF_FRAME>TEME</REF_FRAME><TIME_SYSTEM>UTC</TIME_SYSTEM><MEAN_ELEMENT_THEORY>SGP4</MEAN_ELEMENT_THEORY></metadata><data><meanElements><EPOCH>2025-05-07T22:00:01.999584</EPOCH><MEAN_MOTION>15.91890969</MEAN_MOTION><ECCENTRICITY>.0000867</ECCENTRICITY><INCLINATION>53.1557</INCLINATION><RA_OF_ASC_NODE>211.2390</RA_OF_ASC_NODE><ARG_OF_PERICENTER>55.7731</ARG_OF_PERICENTER><MEAN_ANOMALY>356.0403</MEAN_ANOMALY></meanElements><tleParameters><EPHEMERIS_TYPE>0</EPHEMERIS_TYPE><CLASSIFICATION_TYPE>U</CLASSIFICATION_TYPE><NORAD_CAT_ID>63703</NORAD_CAT_ID><ELEMENT_SET_NO>999</ELEMENT_SET_NO><REV_AT_EPOCH>146</REV_AT_EPOCH><BSTAR>-.31661E-2</BSTAR><MEAN_MOTION_DOT>-.1069983E-1</MEAN_MOTION_DOT><MEAN_MOTION_DDOT>.34556E-3</MEAN_MOTION_DDOT></tleParameters></data></segment></body></omm>
<omm id="CCSDS_OMM_VERS" version="2.0">
<header><CREATION_DATE/><ORIGINATOR/></header><body><segment><metadata><OBJECT_NAME>STARLINK-33937</OBJECT_NAME><OBJECT_ID>2025-087H</OBJECT_ID><CENTER_NAME>EARTH</CENTER_NAME><REF_FRAME>TEME</REF_FRAME><TIME_SYSTEM>UTC</TIME_SYSTEM><MEAN_ELEMENT_THEORY>SGP4</MEAN_ELEMENT_THEORY></metadata><data><meanElements><EPOCH>2025-05-07T22:00:01.999584</EPOCH><MEAN_MOTION>15.92022051</MEAN_MOTION><ECCENTRICITY>.0000733</ECCENTRICITY><INCLINATION>53.1558</INCLINATION><RA_OF_ASC_NODE>211.2296</RA_OF_ASC_NODE><ARG_OF_PERICENTER>53.6104</ARG_OF_PERICENTER><MEAN_ANOMALY>2.6050</MEAN_ANOMALY></meanElements><tleParameters><EPHEMERIS_TYPE>0</EPHEMERIS_TYPE><CLASSIFICATION_TYPE>U</CLASSIFICATION_TYPE><NORAD_CAT_ID>63704</NORAD_CAT_ID><ELEMENT_SET_NO>999</ELEMENT_SET_NO><REV_AT_EPOCH>130</REV_AT_EPOCH><BSTAR>-.31755E-2</BSTAR><MEAN_MOTION_DOT>-.1080366E-1</MEAN_MOTION_DOT><MEAN_MOTION_DDOT>.35212E-3</MEAN_MOTION_DDOT></tleParameters></data></segment></body></omm>
<omm id="CCSDS_OMM_VERS" version="2.0">
<header><CREATION_DATE/><ORIGINATOR/></header><body><segment><metadata><OBJECT_NAME>STARLINK-33848</OBJECT_NAME><OBJECT_ID>2025-087J</OBJECT_ID><CENTER_NAME>EARTH</CENTER_NAME><REF_FRAME>TEME</REF_FRAME><TIME_SYSTEM>UTC</TIME_SYSTEM><MEAN_ELEMENT_THEORY>SGP4</MEAN_ELEMENT_THEORY></metadata><data><meanElements><EPOCH>2025-05-07T22:00:01.999584</EPOCH><MEAN_MOTION>15.91960775</MEAN_MOTION><ECCENTRICITY>.0000837</ECCENTRICITY><INCLINATION>53.1556</INCLINATION><RA_OF_ASC_NODE>211.2339</RA_OF_ASC_NODE><ARG_OF_PERICENTER>56.4456</ARG_OF_PERICENTER><MEAN_ANOMALY>357.7547</MEAN_ANOMALY></meanElements><tleParameters><EPHEMERIS_TYPE>0</EPHEMERIS_TYPE><CLASSIFICATION_TYPE>U</CLASSIFICATION_TYPE><NORAD_CAT_ID>63705</NORAD_CAT_ID><ELEMENT_SET_NO>999</ELEMENT_SET_NO><REV_AT_EPOCH>146</REV_AT_EPOCH><BSTAR>-.31745E-2</BSTAR><MEAN_MOTION_DOT>-.1076643E-1</MEAN_MOTION_DOT><MEAN_MOTION_DDOT>.34971E-3</MEAN_MOTION_DDOT></tleParameters></data></segment></body></omm>
<omm id="CCSDS_OMM_VERS" version="2.0">
<header><CREATION_DATE/><ORIGINATOR/></header><body><segment><metadata><OBJECT_NAME>STARLINK-33995</OBJECT_NAME><OBJECT_ID>2025-087K</OBJECT_ID><CENTER_NAME>EARTH</CENTER_NAME><REF_FRAME>TEME</REF_FRAME><TIME_SYSTEM>UTC</TIME_SYSTEM><MEAN_ELEMENT_THEORY>SGP4</MEAN_ELEMENT_THEORY></metadata><data><meanElements><EPOCH>2025-05-07T22:00:01.999584</EPOCH><MEAN_MOTION>15.92076988</MEAN_MOTION><ECCENTRICITY>.0000796</ECCENTRICITY><INCLINATION>53.1555</INCLINATION><RA_OF_ASC_NODE>211.2260</RA_OF_ASC_NODE><ARG_OF_PERICENTER>50.8678</ARG_OF_PERICENTER><MEAN_ANOMALY>7.1781</MEAN_ANOMALY></meanElements><tleParameters><EPHEMERIS_TYPE>0</EPHEMERIS_TYPE><CLASSIFICATION_TYPE>U</CLASSIFICATION_TYPE><NORAD_CAT_ID>63706</NORAD_CAT_ID><ELEMENT_SET_NO>999</ELEMENT_SET_NO><REV_AT_EPOCH>147</REV_AT_EPOCH><BSTAR>-.31747E-2</BSTAR><MEAN_MOTION_DOT>-.1083158E-1</MEAN_MOTION_DOT><MEAN_MOTION_DDOT>.35396E-3</MEAN_MOTION_DDOT></tleParameters></data></segment></body></omm>

</ndm>