STARLINK-33919          
1 63699U 25087C   25127.91668981 -.01052250  33449-3 -31510-2 0  9995
2 63699  53.1558 211.2554 0000772  55.1109 348.7979 15.91657446  1443
STARLINK-33908          
1 63700U 25087D   25127.91668981 -.01058544  33835-3 -31586-2 0  9992
2 63700  53.1557 211.2503 0000898  57.0149 349.3495 15.91727124  1309
STARLINK-33950          
1 63701U 25087E   25127.91668981 -.01060329  33952-3 -31573-2 0  9993
2 63701  53.1556 211.2475 0000803  55.1399 352.4885 15.91768083  1395
STARLINK-33939          
1 63702U 25087F   25127.91668981 -.01065531  34276-3 -31624-2 0  9991
2 63702  53.1557 211.2430 0000860  55.4663 354.3720 15.91832276  1304
STARLINK-33868          
1 63703U 25087G   25127.91668981 -.01069983  34556-3 -31661-2 0  9999
2 63703  53.1557 211.2390 0000867  55.7731 356.0403 15.91890969  1463
STARLINK-33937          
1 63704U 25087H   25127.91668981 -.01080366  35212-3 -31755-2 0  9992
2 63704  53.1558 211.2296 0000733  53.6104   2.6050 15.92022051  1308
STARLINK-33848          
1 63705U 25087J   25127.91668981 -.01076643  34971-3 -31745-2 0  9996
2 63705  53.1556 211.2339 0000837  56.4456 357.7547 15.91960775  1466
STARLINK-33995          
1 63706U 25087K   25127.91668981 -.01083158  35396-3 -31747-2 0  9990
2 63706  53.1555 211.2260 0000796  50.8678   7.1781 15.92076988  1479
